{
  "type": "FeatureCollection",
  "features": [
    {
      "type": "Feature",
      "properties": {
        "norad_id": 66772,
        "name": "TRANSPORTER-15 DL",
        "group": "last-30-days",
        "lat": 74.78161234152502,
        "lon": -84.81521396787375,
        "alt_km": 500.8208672280425,
        "timestamp": "2025-12-20T18:51:30.446907+00:00",
        "meta_object_name": "TRANSPORTER-15 DL",
        "meta_object_id": "2025-276DL",
        "meta_epoch": "2025-12-20T10:29:54.991392",
        "meta_mean_motion": 15.18640321,
        "meta_eccentricity": 0.0002922,
        "meta_inclination": 97.4447,
        "meta_ra_of_asc_node": 66.1124,
        "meta_arg_of_pericenter": 108.6235,
        "meta_mean_anomaly": 251.5317,
        "meta_ephemeris_type": 0,
        "meta_classification_type": "U",
        "meta_norad_cat_id": 66772,
        "meta_element_set_no": 999,
        "meta_rev_at_epoch": 329,
        "meta_bstar": 0.00036732791,
        "meta_mean_motion_dot": 7.543e-05,
        "meta_mean_motion_ddot": 0,
        "tle_line1": "1 66772U 25276DL  25354.43744203  .00007543  00000+0  36733-3 0  9999",
        "tle_line2": "2 66772  97.4447  66.1124 0002922 108.6235 251.5317 15.18640321  3294"
      },
      "geometry": {
        "type": "Point",
        "coordinates": [
          -84.81521396787375,
          74.78161234152502
        ]
      }
    },
    {
      "type": "Feature",
      "properties": {
        "norad_id": 66773,
        "name": "TRANSPORTER-15 DM",
        "group": "last-30-days",
        "lat": 79.07308313394972,
        "lon": -70.92193557248098,
        "alt_km": 500.93007832453986,
        "timestamp": "2025-12-20T18:51:30.446916+00:00",
        "meta_object_name": "TRANSPORTER-15 DM",
        "meta_object_id": "2025-276DM",
        "meta_epoch": "2025-12-20T05:46:35.884704",
        "meta_mean_motion": 15.18511949,
        "meta_eccentricity": 0.00029593,
        "meta_inclination": 97.4434,
        "meta_ra_of_asc_node": 65.9161,
        "meta_arg_of_pericenter": 104.8131,
        "meta_mean_anomaly": 255.3431,
        "meta_ephemeris_type": 0,
        "meta_classification_type": "U",
        "meta_norad_cat_id": 66773,
        "meta_element_set_no": 999,
        "meta_rev_at_epoch": 326,
        "meta_bstar": 0.00057679801,
        "meta_mean_motion_dot": 0.00011845,
        "meta_mean_motion_ddot": 0,
        "tle_line1": "1 66773U 25276DM  25354.24069311  .00011845  00000+0  57680-3 0  9993",
        "tle_line2": "2 66773  97.4434  65.9161 0002959 104.8131 255.3431 15.18511949  3261"
      },
      "geometry": {
        "type": "Point",
        "coordinates": [
          -70.92193557248098,
          79.07308313394972
        ]
      }
    },
    {
      "type": "Feature",
      "properties": {
        "norad_id": 66774,
        "name": "TRANSPORTER-15 DN",
        "group": "last-30-days",
        "lat": 77.32144812572817,
        "lon": -78.02327568415377,
        "alt_km": 500.91374538269247,
        "timestamp": "2025-12-20T18:51:30.446928+00:00",
        "meta_object_name": "TRANSPORTER-15 DN",
        "meta_object_id": "2025-276DN",
        "meta_epoch": "2025-12-20T10:30:40.840416",
        "meta_mean_motion": 15.18547601,
        "meta_eccentricity": 0.00029786,
        "meta_inclination": 97.4427,
        "meta_ra_of_asc_node": 66.107,
        "meta_arg_of_pericenter": 103.199,
        "meta_mean_anomaly": 256.9577,
        "meta_ephemeris_type": 0,
        "meta_classification_type": "U",
        "meta_norad_cat_id": 66774,
        "meta_element_set_no": 999,
        "meta_rev_at_epoch": 329,
        "meta_bstar": 0.00033272703,
        "meta_mean_motion_dot": 6.807e-05,
        "meta_mean_motion_ddot": 0,
        "tle_line1": "1 66774U 25276DN  25354.43797269  .00006807  00000+0  33273-3 0  9999",
        "tle_line2": "2 66774  97.4427  66.1070 0002978 103.1990 256.9577 15.18547601  3297"
      },
      "geometry": {
        "type": "Point",
        "coordinates": [
          -78.02327568415377,
          77.32144812572817
        ]
      }
    },
    {
      "type": "Feature",
      "properties": {
        "norad_id": 66775,
        "name": "TRANSPORTER-15 DP",
        "group": "last-30-days",
        "lat": 74.16014260069979,
        "lon": -86.16353616159216,
        "alt_km": 501.2487648507649,
        "timestamp": "2025-12-20T18:51:30.446938+00:00",
        "meta_object_name": "TRANSPORTER-15 DP",
        "meta_object_id": "2025-276DP",
        "meta_epoch": "2025-12-20T10:29:43.496736",
        "meta_mean_motion": 15.18613081,
        "meta_eccentricity": 0.00029675,
        "meta_inclination": 97.4351,
        "meta_ra_of_asc_node": 66.0888,
        "meta_arg_of_pericenter": 71.6267,
        "meta_mean_anomaly": 288.529,
        "meta_ephemeris_type": 0,
        "meta_classification_type": "U",
        "meta_norad_cat_id": 66775,
        "meta_element_set_no": 999,
        "meta_rev_at_epoch": 329,
        "meta_bstar": 0.00035167349,
        "meta_mean_motion_dot": 7.212e-05,
        "meta_mean_motion_ddot": 0,
        "tle_line1": "1 66775U 25276DP  25354.43730899  .00007212  00000+0  35167-3 0  9991",
        "tle_line2": "2 66775  97.4351  66.0888 0002967  71.6267 288.5290 15.18613081  3293"
      },
      "geometry": {
        "type": "Point",
        "coordinates": [
          -86.16353616159216,
          74.16014260069979
        ]
      }
    },
    {
      "type": "Feature",
      "properties": {
        "norad_id": 66776,
        "name": "TRANSPORTER-15 DQ",
        "group": "last-30-days",
        "lat": 72.68924874716005,
        "lon": -88.77165976252418,
        "alt_km": 501.05487026076935,
        "timestamp": "2025-12-20T18:51:30.446950+00:00",
        "meta_object_name": "TRANSPORTER-15 DQ",
        "meta_object_id": "2025-276DQ",
        "meta_epoch": "2025-12-20T04:09:46.422144",
        "meta_mean_motion": 15.18645533,
        "meta_eccentricity": 0.00028932,
        "meta_inclination": 97.4391,
        "meta_ra_of_asc_node": 65.8398,
        "meta_arg_of_pericenter": 89.3978,
        "meta_mean_anomaly": 270.7587,
        "meta_ephemeris_type": 0,
        "meta_classification_type": "U",
        "meta_norad_cat_id": 66776,
        "meta_element_set_no": 999,
        "meta_rev_at_epoch": 325,
        "meta_bstar": 0.00028368482,
        "meta_mean_motion_dot": 5.809e-05,
        "meta_mean_motion_ddot": 0,
        "tle_line1": "1 66776U 25276DQ  25354.17345396  .00005809  00000+0  28368-3 0  9992",
        "tle_line2": "2 66776  97.4391  65.8398 0002893  89.3978 270.7587 15.18645533  3259"
      },
      "geometry": {
        "type": "Point",
        "coordinates": [
          -88.77165976252418,
          72.68924874716005
        ]
      }
    },
    {
      "type": "Feature",
      "properties": {
        "norad_id": 66777,
        "name": "TRANSPORTER-15 DR",
        "group": "last-30-days",
        "lat": 62.43405378816022,
        "lon": -99.01697121940119,
        "alt_km": 500.9175618465515,
        "timestamp": "2025-12-20T18:51:30.446962+00:00",
        "meta_object_name": "TRANSPORTER-15 DR",
        "meta_object_id": "2025-276DR",
        "meta_epoch": "2025-12-20T04:07:00.898752",
        "meta_mean_motion": 15.18855004,
        "meta_eccentricity": 0.00033399,
        "meta_inclination": 97.4479,
        "meta_ra_of_asc_node": 65.865,
        "meta_arg_of_pericenter": 118.61,
        "meta_mean_anomaly": 241.5471,
        "meta_ephemeris_type": 0,
        "meta_classification_type": "U",
        "meta_norad_cat_id": 66777,
        "meta_element_set_no": 999,
        "meta_rev_at_epoch": 325,
        "meta_bstar": 0.00036690146,
        "meta_mean_motion_dot": 7.581e-05,
        "meta_mean_motion_ddot": 0,
        "tle_line1": "1 66777U 25276DR  25354.17153818  .00007581  00000+0  36690-3 0  9995",
        "tle_line2": "2 66777  97.4479  65.8650 0003339 118.6100 241.5471 15.18855004  3251"
      },
      "geometry": {
        "type": "Point",
        "coordinates": [
          -99.01697121940119,
          62.43405378816022
        ]
      }
    },
    {
      "type": "Feature",
      "properties": {
        "norad_id": 66791,
        "name": "STARLINK-35867",
        "group": "last-30-days",
        "lat": -0.3904099816447236,
        "lon": -157.13177196555472,
        "alt_km": 384.27405700639247,
        "timestamp": "2025-12-20T18:51:30.446973+00:00",
        "meta_object_name": "STARLINK-35867",
        "meta_object_id": "2025-278A",
        "meta_epoch": "2025-12-20T14:00:03.000384",
        "meta_mean_motion": 15.6206598,
        "meta_eccentricity": 0.00015617,
        "meta_inclination": 42.9989,
        "meta_ra_of_asc_node": 204.4912,
        "meta_arg_of_pericenter": 251.9854,
        "meta_mean_anomaly": 48.2615,
        "meta_ephemeris_type": 0,
        "meta_classification_type": "U",
        "meta_norad_cat_id": 66791,
        "meta_element_set_no": 999,
        "meta_rev_at_epoch": 421,
        "meta_bstar": -0.02434018,
        "meta_mean_motion_dot": -0.01933135,
        "meta_mean_motion_ddot": 0,
        "tle_line1": "1 66791U 25278A   25354.58336806 -.01933135  00000+0 -24340-1 0  9991",
        "tle_line2": "2 66791  42.9989 204.4912 0001561 251.9854  48.2615 15.62065980  4216"
      },
      "geometry": {
        "type": "Point",
        "coordinates": [
          -157.13177196555472,
          -0.3904099816447236
        ]
      }
    }
  ]
}